[{"OBJECT_NAME":"STARLINK-30280","OBJECT_ID":"2023-122M","EPOCH":"2026-03-09T22:00:01.999584","MEAN_MOTION":15.27564889,"ECCENTRICITY":0.00014545,"INCLINATION":43.0011,"RA_OF_ASC_NODE":91.038,"ARG_OF_PERICENTER":260.8212,"MEAN_ANOMALY":103.1201,"EPHEMERIS_TYPE":0,"CLASSIFICATION_TYPE":"U","NORAD_CAT_ID":57643,"ELEMENT_SET_NO":999,"REV_AT_EPOCH":578,"BSTAR":0.0014082321,"MEAN_MOTION_DOT":0.00038675,"MEAN_MOTION_DDOT":0},{"OBJECT_NAME":"OKEAN-1","OBJECT_ID":"1988-056A","EPOCH":"2026-03-09T21:19:04.260000","MEAN_MOTION":15.31672069,"ECCENTRICITY":0.00129431,"INCLINATION":82.4671,"RA_OF_ASC_NODE":262.7586,"ARG_OF_PERICENTER":168.0696,"MEAN_ANOMALY":192.0855,"EPHEMERIS_TYPE":0,"CLASSIFICATION_TYPE":"U","NORAD_CAT_ID":19274,"ELEMENT_SET_NO":999,"REV_AT_EPOCH":3511,"BSTAR":0.00038371192,"MEAN_MOTION_DOT":0.00011798,"MEAN_MOTION_DDOT":0}]
